RISAT-2BR2              
1 46905U 20081A   26068.52426450  .00004901  00000+0  37609-3 0  9996
2 46905  36.8980  95.9121 0010905  52.9142 307.2595 15.01602463292489
STARLINK-30464          
1 57908U 23146T   26068.04073606  .00000610  00000+0  59036-4 0  9996
2 57908  43.0003 316.4432 0001330 268.6034  91.4656 15.03351281135919
