[{"OBJECT_NAME":"RISAT-2BR2","OBJECT_ID":"2020-081A","EPOCH":"2026-03-09T12:34:56.452800","MEAN_MOTION":15.01602463,"ECCENTRICITY":0.00109054,"INCLINATION":36.898,"RA_OF_ASC_NODE":95.9121,"ARG_OF_PERICENTER":52.9142,"MEAN_ANOMALY":307.2595,"EPHEMERIS_TYPE":0,"CLASSIFICATION_TYPE":"U","NORAD_CAT_ID":46905,"ELEMENT_SET_NO":999,"REV_AT_EPOCH":29248,"BSTAR":0.00037609291,"MEAN_MOTION_DOT":4.901e-5,"MEAN_MOTION_DDOT":0},{"OBJECT_NAME":"STARLINK-30464","OBJECT_ID":"2023-146T","EPOCH":"2026-03-09T00:58:39.595584","MEAN_MOTION":15.03351281,"ECCENTRICITY":0.00013307,"INCLINATION":43.0003,"RA_OF_ASC_NODE":316.4432,"ARG_OF_PERICENTER":268.6034,"MEAN_ANOMALY":91.4656,"EPHEMERIS_TYPE":0,"CLASSIFICATION_TYPE":"U","NORAD_CAT_ID":57908,"ELEMENT_SET_NO":999,"REV_AT_EPOCH":13591,"BSTAR":5.903593e-5,"MEAN_MOTION_DOT":6.1e-6,"MEAN_MOTION_DDOT":0}]
